{
  "type": "FeatureCollection",
  "features": [
    {
      "type": "Feature",
      "properties": {
        "norad_id": 33886,
        "name": "IRIDIUM 33 DEB",
        "group": "iridium-33-debris",
        "lat": 13.522962673205775,
        "lon": 67.31310468484662,
        "alt_km": 779.2886601230366,
        "timestamp": "2025-12-14T14:39:29.754043+00:00",
        "meta_object_name": "IRIDIUM 33 DEB",
        "meta_object_id": "1997-051BF",
        "meta_epoch": "2025-12-13T17:22:55.790976",
        "meta_mean_motion": 14.36053452,
        "meta_eccentricity": 0.001237,
        "meta_inclination": 86.383,
        "meta_ra_of_asc_node": 66.8145,
        "meta_arg_of_pericenter": 238.3609,
        "meta_mean_anomaly": 235.0646,
        "meta_ephemeris_type": 0,
        "meta_classification_type": "U",
        "meta_norad_cat_id": 33886,
        "meta_element_set_no": 999,
        "meta_rev_at_epoch": 88066,
        "meta_bstar": 0.00027440153,
        "meta_mean_motion_dot": 8.18e-06,
        "meta_mean_motion_ddot": 0,
        "tle_line1": "1 33886U 97051BF  25347.72425684  .00000818  00000+0  27440-3 0  9995",
        "tle_line2": "2 33886  86.3830  66.8145 0012370 238.3609 235.0646 14.36053452880669"
      },
      "geometry": {
        "type": "Point",
        "coordinates": [
          67.31310468484662,
          13.522962673205775
        ]
      }
    },
    {
      "type": "Feature",
      "properties": {
        "norad_id": 33887,
        "name": "IRIDIUM 33 DEB",
        "group": "iridium-33-debris",
        "lat": -42.245407889811254,
        "lon": -0.7787496898003412,
        "alt_km": 774.8586450170278,
        "timestamp": "2025-12-14T14:39:29.754053+00:00",
        "meta_object_name": "IRIDIUM 33 DEB",
        "meta_object_id": "1997-051BG",
        "meta_epoch": "2025-12-13T19:22:35.154048",
        "meta_mean_motion": 14.37222095,
        "meta_eccentricity": 0.00045305,
        "meta_inclination": 86.3045,
        "meta_ra_of_asc_node": 2.9323,
        "meta_arg_of_pericenter": 221.8987,
        "meta_mean_anomaly": 261.5794,
        "meta_ephemeris_type": 0,
        "meta_classification_type": "U",
        "meta_norad_cat_id": 33887,
        "meta_element_set_no": 999,
        "meta_rev_at_epoch": 88180,
        "meta_bstar": 0.00019984385,
        "meta_mean_motion_dot": 6.14e-06,
        "meta_mean_motion_ddot": 0,
        "tle_line1": "1 33887U 97051BG  25347.80735132  .00000614  00000+0  19984-3 0  9995",
        "tle_line2": "2 33887  86.3045   2.9323 0004530 221.8987 261.5794 14.37222095881809"
      },
      "geometry": {
        "type": "Point",
        "coordinates": [
          -0.7787496898003412,
          -42.245407889811254
        ]
      }
    },
    {
      "type": "Feature",
      "properties": {
        "norad_id": 33953,
        "name": "IRIDIUM 33 DEB",
        "group": "iridium-33-debris",
        "lat": -64.82367525570226,
        "lon": 45.23744526805334,
        "alt_km": 727.8958594719679,
        "timestamp": "2025-12-14T14:39:29.754064+00:00",
        "meta_object_name": "IRIDIUM 33 DEB",
        "meta_object_id": "1997-051BN",
        "meta_epoch": "2025-12-13T23:00:41.279904",
        "meta_mean_motion": 14.55343363,
        "meta_eccentricity": 0.00183355,
        "meta_inclination": 86.3847,
        "meta_ra_of_asc_node": 53.2502,
        "meta_arg_of_pericenter": 99.1861,
        "meta_mean_anomaly": 22.3389,
        "meta_ephemeris_type": 0,
        "meta_classification_type": "U",
        "meta_norad_cat_id": 33953,
        "meta_element_set_no": 999,
        "meta_rev_at_epoch": 88321,
        "meta_bstar": 0.0013385984,
        "meta_mean_motion_dot": 5.839e-05,
        "meta_mean_motion_ddot": 0,
        "tle_line1": "1 33953U 97051BN  25347.95881111  .00005839  00000+0  13386-2 0  9997",
        "tle_line2": "2 33953  86.3847  53.2502 0018335  99.1861  22.3389 14.55343363883218"
      },
      "geometry": {
        "type": "Point",
        "coordinates": [
          45.23744526805334,
          -64.82367525570226
        ]
      }
    },
    {
      "type": "Feature",
      "properties": {
        "norad_id": 33960,
        "name": "IRIDIUM 33 DEB",
        "group": "iridium-33-debris",
        "lat": -59.38362455959549,
        "lon": -77.72619791502066,
        "alt_km": 622.2444719841433,
        "timestamp": "2025-12-14T14:39:29.754074+00:00",
        "meta_object_name": "IRIDIUM 33 DEB",
        "meta_object_id": "1997-051BV",
        "meta_epoch": "2025-12-13T21:25:51.216960",
        "meta_mean_motion": 14.85280498,
        "meta_eccentricity": 0.00075038,
        "meta_inclination": 86.2527,
        "meta_ra_of_asc_node": 288.9709,
        "meta_arg_of_pericenter": 60.6709,
        "meta_mean_anomaly": 4.2451,
        "meta_ephemeris_type": 0,
        "meta_classification_type": "U",
        "meta_norad_cat_id": 33960,
        "meta_element_set_no": 999,
        "meta_rev_at_epoch": 88884,
        "meta_bstar": 0.0032288241,
        "meta_mean_motion_dot": 0.00027836,
        "meta_mean_motion_ddot": 0,
        "tle_line1": "1 33960U 97051BV  25347.89295390  .00027836  00000+0  32288-2 0  9999",
        "tle_line2": "2 33960  86.2527 288.9709 0007503  60.6709   4.2451 14.85280498888840"
      },
      "geometry": {
        "type": "Point",
        "coordinates": [
          -77.72619791502066,
          -59.38362455959549
        ]
      }
    },
    {
      "type": "Feature",
      "properties": {
        "norad_id": 33966,
        "name": "IRIDIUM 33 DEB",
        "group": "iridium-33-debris",
        "lat": 22.29363947939769,
        "lon": 46.70656420111274,
        "alt_km": 731.7397536393719,
        "timestamp": "2025-12-14T14:39:29.754084+00:00",
        "meta_object_name": "IRIDIUM 33 DEB",
        "meta_object_id": "1997-051CB",
        "meta_epoch": "2025-12-13T15:55:10.824672",
        "meta_mean_motion": 14.49599839,
        "meta_eccentricity": 0.00075315,
        "meta_inclination": 86.3927,
        "meta_ra_of_asc_node": 45.6309,
        "meta_arg_of_pericenter": 185.0605,
        "meta_mean_anomaly": 296.2992,
        "meta_ephemeris_type": 0,
        "meta_classification_type": "U",
        "meta_norad_cat_id": 33966,
        "meta_element_set_no": 999,
        "meta_rev_at_epoch": 88455,
        "meta_bstar": 0.00068967677,
        "meta_mean_motion_dot": 2.668e-05,
        "meta_mean_motion_ddot": 0,
        "tle_line1": "1 33966U 97051CB  25347.66331973  .00002668  00000+0  68968-3 0  9999",
        "tle_line2": "2 33966  86.3927  45.6309 0007531 185.0605 296.2992 14.49599839884552"
      },
      "geometry": {
        "type": "Point",
        "coordinates": [
          46.70656420111274,
          22.29363947939769
        ]
      }
    },
    {
      "type": "Feature",
      "properties": {
        "norad_id": 34071,
        "name": "IRIDIUM 33 DEB",
        "group": "iridium-33-debris",
        "lat": 85.81530796655301,
        "lon": 77.86703849200565,
        "alt_km": 713.0357103318338,
        "timestamp": "2025-12-14T14:39:29.754095+00:00",
        "meta_object_name": "IRIDIUM 33 DEB",
        "meta_object_id": "1997-051CE",
        "meta_epoch": "2025-12-13T20:01:44.992992",
        "meta_mean_motion": 14.49471557,
        "meta_eccentricity": 0.00099486,
        "meta_inclination": 86.3461,
        "meta_ra_of_asc_node": 17.3527,
        "meta_arg_of_pericenter": 104.6546,
        "meta_mean_anomaly": 255.5762,
        "meta_ephemeris_type": 0,
        "meta_classification_type": "U",
        "meta_norad_cat_id": 34071,
        "meta_element_set_no": 999,
        "meta_rev_at_epoch": 88350,
        "meta_bstar": 0.00072232186,
        "meta_mean_motion_dot": 2.786e-05,
        "meta_mean_motion_ddot": 0,
        "tle_line1": "1 34071U 97051CE  25347.83454853  .00002786  00000+0  72232-3 0  9999",
        "tle_line2": "2 34071  86.3461  17.3527 0009948 104.6546 255.5762 14.49471557883509"
      },
      "geometry": {
        "type": "Point",
        "coordinates": [
          77.86703849200565,
          85.81530796655301
        ]
      }
    },
    {
      "type": "Feature",
      "properties": {
        "norad_id": 34077,
        "name": "IRIDIUM 33 DEB",
        "group": "iridium-33-debris",
        "lat": 33.68081172749329,
        "lon": 53.09697563663974,
        "alt_km": 668.3348159191837,
        "timestamp": "2025-12-14T14:39:29.754105+00:00",
        "meta_object_name": "IRIDIUM 33 DEB",
        "meta_object_id": "1997-051CL",
        "meta_epoch": "2025-12-13T14:27:56.188224",
        "meta_mean_motion": 14.64854773,
        "meta_eccentricity": 0.00101196,
        "meta_inclination": 86.3862,
        "meta_ra_of_asc_node": 51.127,
        "meta_arg_of_pericenter": 36.6624,
        "meta_mean_anomaly": 84.8045,
        "meta_ephemeris_type": 0,
        "meta_classification_type": "U",
        "meta_norad_cat_id": 34077,
        "meta_element_set_no": 999,
        "meta_rev_at_epoch": 88345,
        "meta_bstar": 0.0015176462,
        "meta_mean_motion_dot": 8.133e-05,
        "meta_mean_motion_ddot": 0,
        "tle_line1": "1 34077U 97051CL  25347.60273366  .00008133  00000+0  15176-2 0  9993",
        "tle_line2": "2 34077  86.3862  51.1270 0010119  36.6624  84.8045 14.64854773883457"
      },
      "geometry": {
        "type": "Point",
        "coordinates": [
          53.09697563663974,
          33.68081172749329
        ]
      }
    }
  ]
}